[Satellite]
VERSION=1.1
NAME=COSMOS 1953
NICKNAME=COSMOS 1953
TLE1=1 19210U 88050A   18020.85185055  .00000935  00000-0  62986-4 0  9994
TLE2=2 19210  82.5167 182.3167 0012090 235.4662 124.5424 15.05482764610586
